[{"OBJECT_NAME":"ONEWEB-0315","OBJECT_ID":"2021-075AC","EPOCH":"2026-01-11T07:29:53.940768","MEAN_MOTION":13.12443686,"ECCENTRICITY":0.00021353,"INCLINATION":87.8929,"RA_OF_ASC_NODE":21.7908,"ARG_OF_PERICENTER":91.8418,"MEAN_ANOMALY":268.2955,"EPHEMERIS_TYPE":0,"CLASSIFICATION_TYPE":"U","NORAD_CAT_ID":49101,"ELEMENT_SET_NO":999,"REV_AT_EPOCH":21459,"BSTAR":0.0010381136,"MEAN_MOTION_DOT":3.86e-6,"MEAN_MOTION_DDOT":0},{"OBJECT_NAME":"ONEWEB-0316","OBJECT_ID":"2021-075AD","EPOCH":"2026-01-11T05:54:38.286144","MEAN_MOTION":13.18684797,"ECCENTRICITY":0.00018864,"INCLINATION":87.9178,"RA_OF_ASC_NODE":6.6273,"ARG_OF_PERICENTER":88.5246,"MEAN_ANOMALY":271.6102,"EPHEMERIS_TYPE":0,"CLASSIFICATION_TYPE":"U","NORAD_CAT_ID":49102,"ELEMENT_SET_NO":999,"REV_AT_EPOCH":21652,"BSTAR":0.00026570784,"MEAN_MOTION_DOT":1.18e-6,"MEAN_MOTION_DDOT":0},{"OBJECT_NAME":"ONEWEB-0317","OBJECT_ID":"2021-075AE","EPOCH":"2026-01-11T07:32:12.931584","MEAN_MOTION":13.11885737,"ECCENTRICITY":9.76e-5,"INCLINATION":87.8928,"RA_OF_ASC_NODE":21.8118,"ARG_OF_PERICENTER":85.7615,"MEAN_ANOMALY":274.3625,"EPHEMERIS_TYPE":0,"CLASSIFICATION_TYPE":"U","NORAD_CAT_ID":49103,"ELEMENT_SET_NO":999,"REV_AT_EPOCH":21461,"BSTAR":0.0014719033,"MEAN_MOTION_DOT":5.38e-6,"MEAN_MOTION_DDOT":0},{"OBJECT_NAME":"ONEWEB-0318","OBJECT_ID":"2021-075AF","EPOCH":"2026-01-11T00:22:05.991168","MEAN_MOTION":13.18684716,"ECCENTRICITY":0.0002041,"INCLINATION":87.9183,"RA_OF_ASC_NODE":6.6611,"ARG_OF_PERICENTER":91.3391,"MEAN_ANOMALY":268.7975,"EPHEMERIS_TYPE":0,"CLASSIFICATION_TYPE":"U","NORAD_CAT_ID":49104,"ELEMENT_SET_NO":999,"REV_AT_EPOCH":21645,"BSTAR":-0.0001341681,"MEAN_MOTION_DOT":-4.0e-7,"MEAN_MOTION_DDOT":0},{"OBJECT_NAME":"ONEWEB-0319","OBJECT_ID":"2021-075AG","EPOCH":"2026-01-11T06:56:33.099072","MEAN_MOTION":13.17647427,"ECCENTRICITY":0.00023916,"INCLINATION":87.9087,"RA_OF_ASC_NODE":37.0585,"ARG_OF_PERICENTER":94.9231,"MEAN_ANOMALY":265.2173,"EPHEMERIS_TYPE":0,"CLASSIFICATION_TYPE":"U","NORAD_CAT_ID":49105,"ELEMENT_SET_NO":999,"REV_AT_EPOCH":21294,"BSTAR":1.1673712e-5,"MEAN_MOTION_DOT":1.7e-7,"MEAN_MOTION_DDOT":0},{"OBJECT_NAME":"ONEWEB-0323","OBJECT_ID":"2021-075AH","EPOCH":"2026-01-11T07:07:56.040960","MEAN_MOTION":13.12444681,"ECCENTRICITY":0.00023566,"INCLINATION":87.8928,"RA_OF_ASC_NODE":21.7985,"ARG_OF_PERICENTER":100.0819,"MEAN_ANOMALY":260.0575,"EPHEMERIS_TYPE":0,"CLASSIFICATION_TYPE":"U","NORAD_CAT_ID":49106,"ELEMENT_SET_NO":999,"REV_AT_EPOCH":21397,"BSTAR":-0.00040366894,"MEAN_MOTION_DOT":-1.32e-6,"MEAN_MOTION_DDOT":0},{"OBJECT_NAME":"ONEWEB-0329","OBJECT_ID":"2021-075AJ","EPOCH":"2026-01-11T07:08:43.649088","MEAN_MOTION":13.17649101,"ECCENTRICITY":0.00018537,"INCLINATION":87.9082,"RA_OF_ASC_NODE":37.0578,"ARG_OF_PERICENTER":98.2161,"MEAN_ANOMALY":261.9181,"EPHEMERIS_TYPE":0,"CLASSIFICATION_TYPE":"U","NORAD_CAT_ID":49107,"ELEMENT_SET_NO":999,"REV_AT_EPOCH":21292,"BSTAR":-0.00013517184,"MEAN_MOTION_DOT":-4.0e-7,"MEAN_MOTION_DDOT":0},{"OBJECT_NAME":"ONEWEB-0330","OBJECT_ID":"2021-075AK","EPOCH":"2026-01-11T07:09:55.776672","MEAN_MOTION":13.1764937,"ECCENTRICITY":0.00016794,"INCLINATION":87.9087,"RA_OF_ASC_NODE":37.0643,"ARG_OF_PERICENTER":100.9678,"MEAN_ANOMALY":259.1642,"EPHEMERIS_TYPE":0,"CLASSIFICATION_TYPE":"U","NORAD_CAT_ID":49108,"ELEMENT_SET_NO":999,"REV_AT_EPOCH":21296,"BSTAR":5.4405757e-5,"MEAN_MOTION_DOT":3.4e-7,"MEAN_MOTION_DDOT":0},{"OBJECT_NAME":"ONEWEB-0292","OBJECT_ID":"2021-083A","EPOCH":"2026-01-11T07:34:53.579424","MEAN_MOTION":13.13468671,"ECCENTRICITY":0.0001904,"INCLINATION":87.8987,"RA_OF_ASC_NODE":351.4315,"ARG_OF_PERICENTER":86.0509,"MEAN_ANOMALY":274.0838,"EPHEMERIS_TYPE":0,"CLASSIFICATION_TYPE":"U","NORAD_CAT_ID":49186,"ELEMENT_SET_NO":999,"REV_AT_EPOCH":21033,"BSTAR":0.00080454219,"MEAN_MOTION_DOT":3.07e-6,"MEAN_MOTION_DDOT":0},{"OBJECT_NAME":"ONEWEB-0303","OBJECT_ID":"2021-083B","EPOCH":"2026-01-11T05:45:08.183520","MEAN_MOTION":13.18685562,"ECCENTRICITY":0.00019586,"INCLINATION":87.9184,"RA_OF_ASC_NODE":6.6182,"ARG_OF_PERICENTER":89.9669,"MEAN_ANOMALY":270.1687,"EPHEMERIS_TYPE":0,"CLASSIFICATION_TYPE":"U","NORAD_CAT_ID":49187,"ELEMENT_SET_NO":999,"REV_AT_EPOCH":20929,"BSTAR":8.7989361e-5,"MEAN_MOTION_DOT":4.8e-7,"MEAN_MOTION_DDOT":0},{"OBJECT_NAME":"ONEWEB-0306","OBJECT_ID":"2021-083C","EPOCH":"2026-01-11T00:03:06.463296","MEAN_MOTION":13.18686088,"ECCENTRICITY":0.00015527,"INCLINATION":87.9183,"RA_OF_ASC_NODE":6.6496,"ARG_OF_PERICENTER":84.9711,"MEAN_ANOMALY":275.1599,"EPHEMERIS_TYPE":0,"CLASSIFICATION_TYPE":"U","NORAD_CAT_ID":49188,"ELEMENT_SET_NO":999,"REV_AT_EPOCH":20930,"BSTAR":-3.0961947e-5,"MEAN_MOTION_DOT":1.0e-8,"MEAN_MOTION_DDOT":0},{"OBJECT_NAME":"ONEWEB-0307","OBJECT_ID":"2021-083D","EPOCH":"2026-01-11T07:26:21.049440","MEAN_MOTION":13.13468696,"ECCENTRICITY":0.0001757,"INCLINATION":87.8984,"RA_OF_ASC_NODE":351.423,"ARG_OF_PERICENTER":85.0394,"MEAN_ANOMALY":275.0936,"EPHEMERIS_TYPE":0,"CLASSIFICATION_TYPE":"U","NORAD_CAT_ID":49189,"ELEMENT_SET_NO":999,"REV_AT_EPOCH":21033,"BSTAR":0.00089280361,"MEAN_MOTION_DOT":3.39e-6,"MEAN_MOTION_DDOT":0},{"OBJECT_NAME":"ONEWEB-0320","OBJECT_ID":"2021-083E","EPOCH":"2026-01-11T05:41:34.578528","MEAN_MOTION":13.18685335,"ECCENTRICITY":0.000178,"INCLINATION":87.9176,"RA_OF_ASC_NODE":6.6304,"ARG_OF_PERICENTER":88.9933,"MEAN_ANOMALY":271.1403,"EPHEMERIS_TYPE":0,"CLASSIFICATION_TYPE":"U","NORAD_CAT_ID":49190,"ELEMENT_SET_NO":999,"REV_AT_EPOCH":20929,"BSTAR":0.00015293207,"MEAN_MOTION_DOT":7.3e-7,"MEAN_MOTION_DDOT":0},{"OBJECT_NAME":"ONEWEB-0321","OBJECT_ID":"2021-083F","EPOCH":"2026-01-11T07:24:25.268256","MEAN_MOTION":13.20771557,"ECCENTRICITY":0.00014805,"INCLINATION":87.923,"RA_OF_ASC_NODE":305.7292,"ARG_OF_PERICENTER":70.8991,"MEAN_ANOMALY":289.2303,"EPHEMERIS_TYPE":0,"CLASSIFICATION_TYPE":"U","NORAD_CAT_ID":49191,"ELEMENT_SET_NO":999,"REV_AT_EPOCH":21612,"BSTAR":0.000420852,"MEAN_MOTION_DOT":1.84e-6,"MEAN_MOTION_DDOT":0},{"OBJECT_NAME":"ONEWEB-0322","OBJECT_ID":"2021-083G","EPOCH":"2026-01-11T07:20:16.073376","MEAN_MOTION":13.13470082,"ECCENTRICITY":0.00015244,"INCLINATION":87.8986,"RA_OF_ASC_NODE":351.4271,"ARG_OF_PERICENTER":68.6588,"MEAN_ANOMALY":291.4704,"EPHEMERIS_TYPE":0,"CLASSIFICATION_TYPE":"U","NORAD_CAT_ID":49192,"ELEMENT_SET_NO":999,"REV_AT_EPOCH":21032,"BSTAR":0.000844207,"MEAN_MOTION_DOT":3.21e-6,"MEAN_MOTION_DDOT":0},{"OBJECT_NAME":"ONEWEB-0324","OBJECT_ID":"2021-083H","EPOCH":"2026-01-11T05:21:22.828896","MEAN_MOTION":13.18685927,"ECCENTRICITY":0.00017768,"INCLINATION":87.9191,"RA_OF_ASC_NODE":6.6124,"ARG_OF_PERICENTER":93.1631,"MEAN_ANOMALY":266.9704,"EPHEMERIS_TYPE":0,"CLASSIFICATION_TYPE":"U","NORAD_CAT_ID":49193,"ELEMENT_SET_NO":999,"REV_AT_EPOCH":20931,"BSTAR":0.00053683085,"MEAN_MOTION_DOT":2.25e-6,"MEAN_MOTION_DDOT":0},{"OBJECT_NAME":"ONEWEB-0325","OBJECT_ID":"2021-083J","EPOCH":"2026-01-11T05:26:07.401984","MEAN_MOTION":13.18685889,"ECCENTRICITY":0.00017933,"INCLINATION":87.9183,"RA_OF_ASC_NODE":6.6311,"ARG_OF_PERICENTER":85.4993,"MEAN_ANOMALY":274.6344,"EPHEMERIS_TYPE":0,"CLASSIFICATION_TYPE":"U","NORAD_CAT_ID":49194,"ELEMENT_SET_NO":999,"REV_AT_EPOCH":20932,"BSTAR":3.1392295e-5,"MEAN_MOTION_DOT":2.5e-7,"MEAN_MOTION_DDOT":0},{"OBJECT_NAME":"ONEWEB-0326","OBJECT_ID":"2021-083K","EPOCH":"2026-01-11T05:47:43.046880","MEAN_MOTION":13.1868582,"ECCENTRICITY":0.00020877,"INCLINATION":87.9183,"RA_OF_ASC_NODE":6.615,"ARG_OF_PERICENTER":88.3592,"MEAN_ANOMALY":271.7779,"EPHEMERIS_TYPE":0,"CLASSIFICATION_TYPE":"U","NORAD_CAT_ID":49195,"ELEMENT_SET_NO":999,"REV_AT_EPOCH":20931,"BSTAR":0.00014882684,"MEAN_MOTION_DOT":7.2e-7,"MEAN_MOTION_DDOT":0},{"OBJECT_NAME":"ONEWEB-0327","OBJECT_ID":"2021-083L","EPOCH":"2026-01-11T05:47:19.353408","MEAN_MOTION":13.18685428,"ECCENTRICITY":0.00021419,"INCLINATION":87.9172,"RA_OF_ASC_NODE":6.6321,"ARG_OF_PERICENTER":85.0995,"MEAN_ANOMALY":275.0381,"EPHEMERIS_TYPE":0,"CLASSIFICATION_TYPE":"U","NORAD_CAT_ID":49196,"ELEMENT_SET_NO":999,"REV_AT_EPOCH":20933,"BSTAR":0.0001231422,"MEAN_MOTION_DOT":6.1e-7,"MEAN_MOTION_DDOT":0},{"OBJECT_NAME":"ONEWEB-0328","OBJECT_ID":"2021-083M","EPOCH":"2026-01-11T05:15:56.687904","MEAN_MOTION":13.13470234,"ECCENTRICITY":0.00016917,"INCLINATION":87.8999,"RA_OF_ASC_NODE":351.3958,"ARG_OF_PERICENTER":88.87,"MEAN_ANOMALY":271.2623,"EPHEMERIS_TYPE":0,"CLASSIFICATION_TYPE":"U","NORAD_CAT_ID":49197,"ELEMENT_SET_NO":999,"REV_AT_EPOCH":21029,"BSTAR":0.00045453024,"MEAN_MOTION_DOT":1.79e-6,"MEAN_MOTION_DDOT":0},{"OBJECT_NAME":"ONEWEB-0331","OBJECT_ID":"2021-083N","EPOCH":"2026-01-11T05:38:00.298752","MEAN_MOTION":13.18685125,"ECCENTRICITY":0.00020507,"INCLINATION":87.9182,"RA_OF_ASC_NODE":6.6091,"ARG_OF_PERICENTER":94.9266,"MEAN_ANOMALY":265.21,"EPHEMERIS_TYPE":0,"CLASSIFICATION_TYPE":"U","NORAD_CAT_ID":49198,"ELEMENT_SET_NO":999,"REV_AT_EPOCH":20932,"BSTAR":0.00013146735,"MEAN_MOTION_DOT":6.5e-7,"MEAN_MOTION_DDOT":0},{"OBJECT_NAME":"ONEWEB-0333","OBJECT_ID":"2021-083P","EPOCH":"2026-01-11T05:08:37.851072","MEAN_MOTION":13.1347027,"ECCENTRICITY":0.00017969,"INCLINATION":87.8982,"RA_OF_ASC_NODE":351.445,"ARG_OF_PERICENTER":82.8561,"MEAN_ANOMALY":277.2773,"EPHEMERIS_TYPE":0,"CLASSIFICATION_TYPE":"U","NORAD_CAT_ID":49199,"ELEMENT_SET_NO":999,"REV_AT_EPOCH":21030,"BSTAR":5.5046422e-5,"MEAN_MOTION_DOT":3.3e-7,"MEAN_MOTION_DDOT":0},{"OBJECT_NAME":"ONEWEB-0334","OBJECT_ID":"2021-083Q","EPOCH":"2026-01-11T06:00:19.338048","MEAN_MOTION":13.20770889,"ECCENTRICITY":0.00015528,"INCLINATION":87.922,"RA_OF_ASC_NODE":305.7648,"ARG_OF_PERICENTER":42.2203,"MEAN_ANOMALY":317.905,"EPHEMERIS_TYPE":0,"CLASSIFICATION_TYPE":"U","NORAD_CAT_ID":49200,"ELEMENT_SET_NO":999,"REV_AT_EPOCH":21607,"BSTAR":0.00014787083,"MEAN_MOTION_DOT":7.3e-7,"MEAN_MOTION_DDOT":0}]
